PANDORA
1 67395U 80229J   26059.82405093  .00000000  00000-0  37770-3 0    04
2 67395  97.8041  60.1878 0006807 117.6156 181.7364 14.87848634    02
